{
    "links": {
        "self": "http://www.neowsapp.com/rest/v1/neo/3309831?api_key=iIulBulltgU6a56xZRHN4H3l9WmuAYTsLGpBGhQ2"
    },
    "id": "3309831",
    "neo_reference_id": "3309831",
    "name": "(2005 YN128)",
    "designation": "2005 YN128",
    "nasa_jpl_url": "http://ssd.jpl.nasa.gov/sbdb.cgi?sstr=3309831",
    "absolute_magnitude_h": 24.1,
    "estimated_diameter": {
        "kilometers": {
            "estimated_diameter_min": 0.040230458,
            "estimated_diameter_max": 0.0899580388
        },
        "meters": {
            "estimated_diameter_min": 40.2304579834,
            "estimated_diameter_max": 89.9580388169
        },
        "miles": {
            "estimated_diameter_min": 0.0249980399,
            "estimated_diameter_max": 0.0558973165
        },
        "feet": {
            "estimated_diameter_min": 131.9896957704,
            "estimated_diameter_max": 295.1379320721
        }
    },
    "is_potentially_hazardous_asteroid": false,
    "close_approach_data": [
        {
            "close_approach_date": "2005-12-19",
            "close_approach_date_full": "2005-Dec-19 12:44",
            "epoch_date_close_approach": 1134996240000,
            "relative_velocity": {
                "kilometers_per_second": "10.1620893712",
                "kilometers_per_hour": "36583.5217361868",
                "miles_per_hour": "22731.5777143545"
            },
            "miss_distance": {
                "astronomical": "0.0551224916",
                "lunar": "21.4426492324",
                "kilometers": "8246207.332452892",
                "miles": "5123955.6354062296"
            },
            "orbiting_body": "Earth"
        }
    ],
    "orbital_data": {
        "orbit_id": "8",
        "orbit_determination_date": "2017-04-06 09:09:32",
        "first_observation_date": "2005-12-30",
        "last_observation_date": "2006-01-06",
        "data_arc_in_days": 7,
        "observations_used": 20,
        "orbit_uncertainty": "9",
        "minimum_orbit_intersection": ".0189114",
        "jupiter_tisserand_invariant": "4.154",
        "epoch_osculation": "2453737.5",
        "eccentricity": ".4410601458767162",
        "semi_major_axis": "1.655897290903434",
        "inclination": "2.567912423591118",
        "ascending_node_longitude": "284.9991291795238",
        "orbital_period": "778.3026699881968",
        "perihelion_distance": ".9255469902207062",
        "perihelion_argument": "117.5928874684362",
        "aphelion_distance": "2.386247591586162",
        "perihelion_time": "2453690.389743305364",
        "mean_anomaly": "21.79061316894385",
        "mean_motion": ".462544989092045",
        "equinox": "J2000",
        "orbit_class": {
            "orbit_class_type": "APO",
            "orbit_class_description": "Near-Earth asteroid orbits which cross the Earth’s orbit similar to that of 1862 Apollo",
            "orbit_class_range": "a (semi-major axis) > 1.0 AU; q (perihelion) < 1.017 AU"
        }
    },
    "is_sentry_object": false
}